CCSDS_OEM_VERS = 2.0  
CREATION_DATE  = 2026-03-24T10:46:14
ORIGINATOR     = ESOC/OPS-GFA                            
 
 



META_START
OBJECT_NAME          = LISA                                    
OBJECT_ID            = -1000                                   
CENTER_NAME          = SUN                     
REF_FRAME            = EME2000 
TIME_SYSTEM          = TCB
START_TIME           = 2036-12-23T00:00:30.346418            
STOP_TIME            = 2047-09-06T07:29:40.637963            
INTERPOLATION        = HERMITE                                 
INTERPOLATION_DEGREE = 7                                       
META_STOP

2038-08-12T11:34:18.468553     7.74322397525726855e+07   -1.16736755702570111e+08   -5.13185978704110309e+07    2.55893452260572225e+01    1.40399525882599168e+01    6.31544318809108329e+00   -3.09467530499873780e-06    4.66583931880047999e-06    2.05114838924738383e-06
2038-08-13T07:43:03.506680     7.92799048437739909e+07   -1.15706273421989068e+08   -5.08551922103605419e+07    2.53622423651097897e+01    1.43768248997397627e+01    6.46352046712074024e+00   -3.16795350879748523e-06    4.62382039488389896e-06    2.03226094651166804e-06
2038-08-14T03:51:48.544805     8.11109072027589679e+07   -1.14651470839051709e+08   -5.03810972940474004e+07    2.51298501897752544e+01    1.47106147802979095e+01    6.61021255218884463e+00   -3.24053452687021055e-06    4.58083773758836627e-06    2.01295006981149110e-06
2038-08-15T00:00:33.582932     8.29248650182822645e+07   -1.13572573994684964e+08   -4.98964146756639630e+07    2.48922198114242192e+01    1.50412526943942595e+01    6.75548889487234661e+00   -3.31240327560248221e-06    4.53690128372264385e-06    1.99322021587305379e-06
2038-08-15T20:09:18.621058     8.47214002251486331e+07   -1.12469813945023552e+08   -4.94012481124452353e+07    2.46494034296125974e+01    1.53686698333498164e+01    6.89931927268739642e+00   -3.38354482819407544e-06    4.49202113719806707e-06    1.97307591466467637e-06
2038-08-16T16:18:03.659184     8.65001386248184443e+07   -1.11343426740444943e+08   -4.88957035549013838e+07    2.44014543211557324e+01    1.56927981266075776e+01    7.04167379402365068e+00   -3.45394440180403681e-06    4.44620754466372500e-06    1.95252175867879260e-06
2038-08-17T12:26:48.697310     8.82607100303378105e+07   -1.10193653423226327e+08   -4.83798891451865062e+07    2.41484268302533920e+01    1.60135702510673354e+01    7.18252290223149803e+00   -3.52358734138179010e-06    4.39947086667323953e-06    1.93156239025289609e-06
2038-08-18T08:36:25.236159     9.00039785395247191e+07   -1.09019898801223606e+08   -4.78535380614251718e+07    2.38901913299006168e+01    1.63311437789837797e+01    7.32193576380940314e+00   -3.59250817804142513e-06    4.35178801214807123e-06    1.91018745291273534e-06
2038-08-19T04:46:01.775008     9.17283243943595141e+07   -1.07823222178500712e+08   -4.73171255228316039e+07    2.36269822407126355e+01    1.66452238273099873e+01    7.45978290416962153e+00   -3.66064276966673878e-06    4.30320249727123498e-06    1.88841645816848585e-06
2038-08-20T00:55:38.313856     9.34333887441720366e+07   -1.06603879478566274e+08   -4.67707662076358199e+07    2.33588571317860314e+01    1.69557452882871544e+01    7.59603575969476275e+00   -3.72797718949223189e-06    4.25372548207356940e-06    1.86625439928472663e-06
2038-08-20T21:05:14.852706     9.51188168925367892e+07   -1.05362131293294370e+08   -4.62145768420007154e+07    2.30858745779636720e+01    1.72626438689837123e+01    7.73066613129698155e+00   -3.79449765346245215e-06    4.20336826368607215e-06    1.84370632965169191e-06
2038-08-21T17:14:51.391554     9.67842584217721671e+07   -1.04098242847922996e+08   -4.56486761840580553e+07    2.28080941485305964e+01    1.75658561018105530e+01    7.86364618903180279e+00   -3.86019054551671447e-06    4.15214229120468786e-06    1.82077736936594699e-06
2038-08-22T13:24:27.930403     9.84293672918103039e+07   -1.02812483953485340e+08   -4.50731850024760887e+07    2.25255763942393124e+01    1.78653193559779275e+01    7.99494847712875689e+00   -3.92504243839956546e-06    4.10005917686525693e-06    1.79747271017483125e-06
2038-08-23T09:34:04.469251     1.00053801918833897e+08   -1.01505128949229270e+08   -4.44882260506699458e+07    2.22383828329868969e+01    1.81609718496296715e+01    8.12454591932154635e+00   -3.98904011000382125e-06    4.04713070353337481e-06    1.77379761878673553e-06
2038-08-24T05:43:41.008101     1.01657225239059299e+08   -1.00176456637590274e+08   -4.38939240377702042e+07    2.19465759344683526e+01    1.84527526623869882e+01    8.25241182435904896e+00   -4.05217055523728691e-06    3.99336882849992876e-06    1.74975743854318628e-06
2038-08-25T01:53:17.546949     1.03239304763044715e+08   -9.88267502142826319e+07   -4.32904055974649936e+07    2.16502191041306986e+01    1.87406017480341340e+01    8.37851989157843668e+00   -4.11442099342812197e-06    3.93878568359835269e-06    1.72535758945982436e-06
2038-08-25T22:02:54.085798     1.04799712625902399e+08   -9.74562971960738897e+07   -4.26777992558308616e+07    2.13493766667522138e+01    1.90244599470783591e+01    8.50284421642172461e+00   -4.17577887124481456e-06    3.88339357161762808e-06    1.70060356662471421e-06
2038-08-26T18:12:30.624647     1.06338125638794154e+08   -9.60653893488078117e+07   -4.20562353992679045e+07    2.10441138499713816e+01    1.93042689989163279e+01    8.62535929577703442e+00   -4.23623186116483901e-06    3.82720495904692844e-06    1.67550093696995066e-06
2038-08-27T14:22:07.163496     1.07854225347088769e+08   -9.46543226182404608e+07   -4.14258462436543852e+07    2.07344967680898975e+01    1.95799715533394405e+01    8.74604003302588140e+00   -4.29576785546187901e-06    3.77023246512332445e-06    1.65005533440390391e-06
2038-08-28T10:31:43.702344     1.09347698100560620e+08   -9.32233970662546754e+07   -4.07867658058362603e+07    2.04205924064742987e+01    1.98515111811102756e+01    8.86486174267774985e+00   -4.35437495570350922e-06    3.71248884716512772e-06    1.62427245329630798e-06
2038-08-29T06:41:20.241194     1.10818235141008332e+08   -9.17729168150179386e+07   -4.01391298785669133e+07    2.01024686068805813e+01    2.01188323833425500e+01    8.98180015447331037e+00   -4.41204145783146977e-06    3.65398698228121460e-06    1.59815804035636057e-06
2038-08-30T02:50:56.780042     1.12265532712672606e+08   -9.03031900016482919e+07   -3.94830760100125000e+07    1.97801940540263530e+01    2.03818805994168315e+01    9.09683141683751373e+00   -4.46875583272120977e-06    3.59473984533345366e-06    1.57171788484909504e-06
2038-08-30T23:00:33.318890     1.13689292200831652e+08   -8.88145287459540069e+07   -3.88187434889381230e+07    1.94538382637349443e+01    2.06406022131643994e+01    9.20993209956388981e+00   -4.52450670225197325e-06    3.53476048318665888e-06    1.54495780716602944e-06
2038-08-31T19:10:59.593994     1.15090171123244524e+08   -8.73062097679196894e+07   -3.81458096849129051e+07    1.91232437966360003e+01    2.08951173591208388e+01    9.32115469611399483e+00   -4.57932060559556033e-06    3.47402066344473232e-06    1.51786521215350854e-06
2038-09-01T15:21:25.869098     1.16466896520554394e+08   -8.57795671229008436e+07   -3.74648699247362539e+07    1.87887041617935786e+01    2.11451954663635711e+01    9.43039842364675174e+00   -4.63314793135232004e-06    3.41257449786331617e-06    1.49046424073865344e-06
2038-09-02T11:31:52.144203     1.17819184514562875e+08   -8.42349249116537720e+07   -3.67760687360090092e+07    1.84502913923390430e+01    2.13907857303597275e+01    9.53764110640223706e+00   -4.68597819437124776e-06    3.35043562472559615e-06    1.46276097029860249e-06
2038-09-03T07:42:18.419306     1.19146756421562716e+08   -8.26726108746000826e+07   -3.60795522348553687e+07    1.81080782769603097e+01    2.16318383403294909e+01    9.64286101138706719e+00   -4.73780107791595112e-06    3.28761777401611774e-06    1.43476151737847641e-06
2038-09-04T03:52:44.694410     1.20449338862363115e+08   -8.10929563323874474e+07   -3.53754680991877839e+07    1.77621383466946696e+01    2.18683044863074336e+01    9.74603685139692644e+00   -4.78860645965400855e-06    3.22413477794974461e-06    1.40647204236018066e-06
2038-09-05T00:03:10.969514     1.21726663844759390e+08   -7.94962961196404994e+07   -3.46639655390692204e+07    1.74125458600125498e+01    2.21001363668675275e+01    9.84714778833388493e+00   -4.83838443280991891e-06    3.16000057879333276e-06    1.37789875294416655e-06
2038-09-05T20:13:37.244618     1.22978468824234262e+08   -7.78829685132532567e+07   -3.39451952647476569e+07    1.70593757865403219e+01    2.23272871973181140e+01    9.94617343673355592e+00   -4.88712532249166740e-06    3.09522923398565590e-06    1.34904790644643385e-06
2038-09-06T16:24:03.519722     1.24204496748661846e+08   -7.62533151565867513e+07   -3.32193094529435672e+07    1.67027037897730644e+01    2.25497112181702377e+01    1.00430938674159158e+01   -4.93481969717986188e-06    3.02983491854673226e-06    1.31992581090708407e-06
2038-09-07T12:34:29.794825     1.25404496092786565e+08   -7.46076809809360206e+07   -3.24864617119708806e+07    1.63426062091282098e+01    2.27673637036828893e+01    1.01378896111736125e+01   -4.98145837538849586e-06    2.96383192478523859e-06    1.29053882501404411e-06
2038-09-08T08:44:56.069929     1.26578220888248578e+08   -7.29464141256302446e+07   -3.17468070462721884e+07    1.59791600416909088e+01    2.29802009702886423e+01    1.02305416624116141e+01   -5.02703242748967260e-06    2.89723465929552304e-06    1.26089335683838147e-06
2038-09-09T04:55:22.345033     1.27725430754927278e+08   -7.12698658581299186e+07   -3.10005018209487088e+07    1.56124429240021456e+01    2.31881803847031378e+01    1.03210314826520193e+01   -5.07153317271367111e-06    2.83005763725430743e-06    1.23099586138556460e-06
